[{"OBJECT_NAME":"STARLINK-3396","OBJECT_ID":"2022-005AB","EPOCH":"2026-03-09T21:27:32.603904","MEAN_MOTION":15.08837165,"ECCENTRICITY":0.00013733,"INCLINATION":53.2184,"RA_OF_ASC_NODE":298.2057,"ARG_OF_PERICENTER":87.4462,"MEAN_ANOMALY":272.6687,"EPHEMERIS_TYPE":0,"CLASSIFICATION_TYPE":"U","NORAD_CAT_ID":51129,"ELEMENT_SET_NO":999,"REV_AT_EPOCH":22876,"BSTAR":-3.0792652e-5,"MEAN_MOTION_DOT":-7.78e-6,"MEAN_MOTION_DDOT":0},{"OBJECT_NAME":"STRIX-2","OBJECT_ID":"2024-248A","EPOCH":"2026-03-09T23:00:54.819648","MEAN_MOTION":15.07630986,"ECCENTRICITY":0.00151844,"INCLINATION":97.6197,"RA_OF_ASC_NODE":25.3276,"ARG_OF_PERICENTER":319.5195,"MEAN_ANOMALY":40.4902,"EPHEMERIS_TYPE":0,"CLASSIFICATION_TYPE":"U","NORAD_CAT_ID":62406,"ELEMENT_SET_NO":999,"REV_AT_EPOCH":6663,"BSTAR":0.00066021351,"MEAN_MOTION_DOT":0.00010025,"MEAN_MOTION_DDOT":0}]
